STARLINK-1434           
1 45712U 20035BH  26068.24137979  .00054112  00000+0  20295-2 0  9995
2 45712  53.0547  22.1128 0005343  88.0400 272.1210 15.26724568319325
STARLINK-31513          
1 59529U 24073U   26067.38840791 -.00001564  00000+0 -47338-4 0  9993
2 59529  43.0017 322.1256 0000981 277.8235  82.2506 15.27571283106012
